LEMUR-1                 
1 40044U 14033AL  26169.64134095  .00001619  00000+0  19092-3 0  9999
2 40044  97.7879 319.4140 0049641  73.9921 286.6753 14.85251522645689
LEMUR-2-GREENBERG       
1 42837U 17042N   26169.45925088  .00012937  00000+0  42899-3 0  9999
2 42837  97.3821 350.0774 0008395   9.3280 350.8115 15.31359663488587
LEMUR-2-ANDIS           
1 42838U 17042P   26169.48562927  .00016141  00000+0  47856-3 0  9991
2 42838  97.3677 350.2921 0008044   7.6302 352.5062 15.34885216488659
LEMUR-2-MONSON          
1 42839U 17042Q   26169.47078065  .00010699  00000+0  39358-3 0  9996
2 42839  97.4078 350.0593 0006064   1.3615 358.7640 15.28037934488364
LEMUR-2-FURIAUS         
1 42840U 17042R   26169.45393875  .00013947  00000+0  47784-3 0  9996
2 42840  97.3770 348.0240 0008108  65.3345 294.8739 15.30285769488409
LEMUR-2-PETERG          
1 42841U 17042S   26169.47058771  .00015959  00000+0  48822-3 0  9991
2 42841  97.3990 354.5021 0003084 351.8183   8.3009 15.33923288488635
LEMUR-2-DEMBITZ         
1 42842U 17042T   26169.47378497  .00012373  00000+0  42389-3 0  9991
2 42842  97.3825 351.0690 0006625  24.6054 335.5501 15.30325731488541
LEMUR-2-ZACHARY         
1 42845U 17042W   26169.48093316  .00035114  00000+0  61851-3 0  9992
2 42845  97.3591   1.1445 0002786  28.0577 332.0824 15.50356452489409
LEMUR-2-AMANDA-SVANTE   
1 48269U 21034B   26169.46617047  .00024235  00000+0  72936-3 0  9993
2 48269  97.5757 247.7855 0002492 203.0789 157.0341 15.34359497281254
LEMUR-2-SPECIAL-K       
1 48273U 21034F   26169.49244251  .00126097  00000+0  12800-2 0  9996
2 48273  97.5651 256.4445 0004487 228.2243 131.8633 15.64790945281898
LEMUR-2-EMBRIONOVIS     
1 56970U 23084AQ  26168.33188497  .00010473  00000+0  28630-3 0  9996
2 56970  97.6296 312.5361 0007732 319.5567  40.5101 15.37551092167704
LEMUR-2-DEVERILL-M-T    
1 57391U 23100F   26169.59948444  .00021208  00000+0  53654-3 0  9990
2 57391  99.4465 208.7650 0006121  46.1145 314.0599 15.39812447161466
LEMUR-2-BASS            
1 58259U 23174D   26169.18296101  .00013800  00000+0  31336-3 0  9998
2 58259  97.3847 253.9091 0007799 159.0416 201.1152 15.43121996145515
LEMUR-2-JK0903EM1407    
1 58336U 23174CJ  26169.49798948  .00021247  00000+0  35748-3 0  9999
2 58336  97.3921 260.0045 0005722 116.7088 243.4751 15.51737446145933
LEMUR-2-MJR092620       
1 58340U 23174CN  26169.51896853  .00015336  00000+0  32763-3 0  9997
2 58340  97.3974 259.5722 0007117 113.7449 246.4547 15.44915529145858
LEMUR-2-NIMBUS2000      
1 58899U 24022A   26169.37834168  .00013207  00000+0  33208-3 0  9994
2 58899  97.4103  19.3941 0010366 112.2621 247.9726 15.40027196132450
LEMUR-2-VALHALLA        
1 58900U 24022B   26169.37481145  .00012409  00000+0  31547-3 0  9997
2 58900  97.4102  19.3805 0010880 108.4761 251.7668 15.39701639132451
LEMUR-2-CAEL            
1 58903U 24022E   26169.31869800  .00013937  00000+0  33935-3 0  9992
2 58903  97.4083  20.2616 0009252  94.1436 266.0868 15.41005259132510
LEMUR-2-JOHNNYTRUONG    
1 59146U 24043BA  26169.68901821  .00031698  00000+0  38447-3 0  9992
2 59146  97.5383 321.4848 0004858 171.6934 188.4404 15.60561028128271
LEMUR-2-TOMATOKECHUP    
1 60471U 24149D   26169.67080127  .00008793  00000+0  25267-3 0  9994
2 60471  97.3799 251.7214 0001604 173.2707 186.8559 15.36059233102398
LEMUR-2-STELLA          
1 60533U 24149BT  26169.53788786  .00008277  00000+0  48796-3 0  9993
2 60533  97.6734 251.9987 0001608  96.2198 263.9215 15.11833501100700
LEMUR-2-MARHISYAM       
1 60536U 24149BW  26169.65111743  .00008941  00000+0  53477-3 0  9992
2 60536  97.6878 252.5628 0003241 115.9621 244.1943 15.11284968100702
LEMUR-2-AHMED-ASRAR     
1 60576U 24149DN  26169.22082141  .00008634  00000+0  49630-3 0  9993
2 60576  97.7006 254.2272 0001800  42.4365 317.7005 15.12732689100729
LEMUR-2-LLOYD           
1 60577U 24149DP  26169.50087883  .00008248  00000+0  52171-3 0  9998
2 60577  97.6748 250.6303 0004900 137.3235 222.8374 15.09260726100595
LEMUR-2-SQUIRRELCOMM    
1 60578U 24149DQ  26169.45048385  .00004944  00000+0  33284-3 0  9990
2 60578  97.6706 250.3576 0006197  57.4751 302.7074 15.07160374100595
LEMUR-2-SIERRINI        
1 60579U 24149DR  26169.47627583  .00007960  00000+0  48060-3 0  9995
2 60579  97.6840 252.0741 0005976 160.6436 199.5021 15.10968434100657
LEMUR-2-WILSON          
1 62694U 25009CP  26169.16578314  .00002327  00000+0  21710-3 0  9999
2 62694  97.7025 247.6131 0004235  56.6184 303.5442 14.95169543 77504
LEMUR-2-STAR-FOX        
1 62696U 25009CR  26169.69110449  .00006051  00000+0  45984-3 0  9997
2 62696  97.6954 251.2889 0003990 108.0538 252.1122 15.02522417 77785
LEMUR-2-ARIANNA         
1 62699U 25009CU  26169.68946236  .00006148  00000+0  46734-3 0  9991
2 62699  97.6893 251.0608 0004367 113.4180 246.7504 15.02504251 77788
LEMUR-2-ALISIA          
1 62706U 25009DB  26169.46733309  .00005360  00000+0  40513-3 0  9995
2 62706  97.6946 251.6287 0002143 190.7634 169.3546 15.02782185100357
